$$SOE
2459580.500000000, A.D. 2022-Jan-01 00:00:00.0000, -3.288552264678259E+08, -6.087920657268627E+07, 1.579294601032450E+07,
2459587.500000000, A.D. 2022-Jan-08 00:00:00.0000, -3.252664979459869E+08, -7.253368727634253E+07, 1.710065732424489E+07,
2459594.500000000, A.D. 2022-Jan-15 00:00:00.0000, -3.212529145888448E+08, -8.409338565613441E+07, 1.838602724731282E+07,
2459601.500000000, A.D. 2022-Jan-22 00:00:00.0000, -3.168155060187154E+08, -9.554210010583659E+07, 1.964713534427794E+07,
2459608.500000000, A.D. 2022-Jan-29 00:00:00.0000, -3.119559697273182E+08, -1.068634710829085E+08, 2.088205984204781E+07,
2459615.500000000, A.D. 2022-Feb-05 00:00:00.0000, -3.066766949925532E+08, -1.180410104973871E+08, 2.208888178549412E+07,
2459622.500000000, A.D. 2022-Feb-12 00:00:00.0000, -3.009807834777040E+08, -1.290581343909829E+08, 2.326568914460986E+07,
2459629.500000000, A.D. 2022-Feb-19 00:00:00.0000, -2.948720676243699E+08, -1.398981965242916E+08, 2.441058118208486E+07,
2459636.500000000, A.D. 2022-Feb-26 00:00:00.0000, -2.883551279251993E+08, -1.505445235627646E+08, 2.552167313311145E+07,
2459643.500000000, A.D. 2022-Mar-05 00:00:00.0000, -2.814353086895265E+08, -1.609804524270402E+08, 2.659710111997860E+07,
2459650.500000000, A.D. 2022-Mar-12 00:00:00.0000, -2.741187318531379E+08, -1.711893697952804E+08, 2.763502726096210E+07,
2459657.500000000, A.D. 2022-Mar-19 00:00:00.0000, -2.664123085286983E+08, -1.811547536196732E+08, 2.863364495110011E+07,
2459664.500000000, A.D. 2022-Mar-26 00:00:00.0000, -2.583237480344550E+08, -1.908602165267609E+08, 2.959118428933698E+07,
2459671.500000000, A.D. 2022-Apr-02 00:00:00.0000, -2.498615640950612E+08, -2.002895510027955E+08, 3.050591761416385E+07,
2459678.500000000, A.D. 2022-Apr-09 00:00:00.0000, -2.410350777201039E+08, -2.094267761870418E+08, 3.137616509434581E+07,
2459685.500000000, A.D. 2022-Apr-16 00:00:00.0000, -2.318544162043894E+08, -2.182561854204562E+08, 3.220030036612809E+07,
2459692.500000000, A.D. 2022-Apr-23 00:00:00.0000, -2.223305093399875E+08, -2.267623932321115E+08, 3.297675639093994E+07,
2459699.500000000, A.D. 2022-Apr-30 00:00:00.0000, -2.124750845464706E+08, -2.349303837419282E+08, 3.370403148708669E+07,
2459706.500000000, A.D. 2022-May-07 00:00:00.0000, -2.023006577121198E+08, -2.427455621609386E+08, 3.438069505513082E+07,
2459713.500000000, A.D. 2022-May-14 00:00:00.0000, -1.918205182361817E+08, -2.501938060345458E+08, 3.500539307678511E+07,
2459720.500000000, A.D. 2022-May-21 00:00:00.0000, -1.810487102075942E+08, -2.572615151308038E+08, 3.557685359154093E+07,
2459727.500000000, A.D. 2022-May-28 00:00:00.0000, -1.700000101320989E+08, -2.639356605767699E+08, 3.609389207022642E+07,
2459734.500000000, A.D. 2022-Jun-04 00:00:00.0000, -1.586899008979945E+08, -2.702038331913053E+08, 3.655541658753757E+07,
2459741.500000000, A.D. 2022-Jun-11 00:00:00.0000, -1.471345418445646E+08, -2.760542906456426E+08, 3.696043273529731E+07,
2459748.500000000, A.D. 2022-Jun-18 00:00:00.0000, -1.353507349505520E+08, -2.814760030708692E+08, 3.730804823210961E+07,
2459755.500000000, A.D. 2022-Jun-25 00:00:00.0000, -1.233558872161301E+08, -2.864586967753829E+08, 3.759747718445368E+07,
2459762.500000000, A.D. 2022-Jul-02 00:00:00.0000, -1.111679692501323E+08, -2.909928957686091E+08, 3.782804394300257E+07,
2459769.500000000, A.D. 2022-Jul-09 00:00:00.0000, -9.880546985879025E+07, -2.950699605523944E+08, 3.799918649542585E+07,
2459776.500000000, A.D. 2022-Jul-16 00:00:00.0000, -8.628734691761078E+07, -2.986821227500926E+08, 3.811045945384489E+07,
2459783.500000000, A.D. 2022-Jul-23 00:00:00.0000, -7.363297698916486E+07, -3.018225151678849E+08, 3.816153681216609E+07,
2459790.500000000, A.D. 2022-Jul-30 00:00:00.0000, -6.086210390197374E+07, -3.044852003416824E+08, 3.815221416233985E+07,
2459797.500000000, A.D. 2022-Aug-06 00:00:00.0000, -4.799478302559172E+07, -3.066651966573947E+08, 3.808241006901169E+07,
2459804.500000000, A.D. 2022-Aug-13 00:00:00.0000, -3.505132243151262E+07, -3.083584990634356E+08, 3.795216688584587E+07,
2459811.500000000, A.D. 2022-Aug-20 00:00:00.0000, -2.205222290176608E+07, -3.095620946898596E+08, 3.776165110424966E+07,
2459818.500000000, A.D. 2022-Aug-27 00:00:00.0000, -9.018117130175058E+06, -3.102739739537554E+08, 3.751115316221808E+07,
2459825.500000000, A.D. 2022-Sep-03 00:00:00.0000, 4.030291703069337E+06, -3.104931371590749E+08, 3.720108668025780E+07,
2459832.500000000, A.D. 2022-Sep-10 00:00:00.0000, 1.707229163675701E+07, -3.102195965105630E+08, 3.683198712191150E+07,
2459839.500000000, A.D. 2022-Sep-17 00:00:00.0000, 3.008722350558458E+07, -3.094543735363196E+08, 3.640450988573456E+07,
2459846.500000000, A.D. 2022-Sep-24 00:00:00.0000, 4.305454201470476E+07, -3.081994920142421E+08, 3.591942783571309E+07,
2459853.500000000, A.D. 2022-Oct-01 00:00:00.0000, 5.595387612446719E+07, -3.064579665178405E+08, 3.537762826926613E+07,
2459860.500000000, A.D. 2022-Oct-08 00:00:00.0000, 6.876508873869057E+07, -3.042337861967551E+08, 3.478010935573086E+07,
2459867.500000000, A.D. 2022-Oct-15 00:00:00.0000, 8.146833437084706E+07, -3.015318927709804E+08, 3.412797626012699E+07,
2459874.500000000, A.D. 2022-Oct-22 00:00:00.0000, 9.404411223857850E+07, -2.983581546372477E+08, 3.342243704909533E+07,
2459881.500000000, A.D. 2022-Oct-29 00:00:00.0000, 1.064733169486199E+08, -2.947193399303517E+08, 3.266479797563320E+07,
2459888.500000000, A.D. 2022-Nov-05 00:00:00.0000, 1.187372885710537E+08, -2.906230860832585E+08, 3.185645821597104E+07,
2459895.500000000, A.D. 2022-Nov-12 00:00:00.0000, 1.308178598732463E+08, -2.860778649321320E+08, 3.099890438720678E+07,
2459902.500000000, A.D. 2022-Nov-19 00:00:00.0000, 1.426973997677509E+08, -2.810929446536971E+08, 3.009370487986021E+07,
2459909.500000000, A.D. 2022-Nov-26 00:00:00.0000, 1.543588530512045E+08, -2.756783492814456E+08, 2.914250399591987E+07,
2459916.500000000, A.D. 2022-Dec-03 00:00:00.0000, 1.657857764562829E+08, -2.698448161733882E+08, 2.814701592384996E+07,
2459923.500000000, A.D. 2022-Dec-10 00:00:00.0000, 1.769623709574562E+08, -2.636037517802436E+08, 2.710901859502000E+07,
2459930.500000000, A.D. 2022-Dec-17 00:00:00.0000, 1.878735102871920E+08, -2.569671861053363E+08, 2.603034746221891E+07,
2459937.500000000, A.D. 2022-Dec-24 00:00:00.0000, 1.985047657406754E+08, -2.499477262795047E+08, 2.491288922681405E+07,
2459944.500000000, A.D. 2022-Dec-31 00:00:00.0000, 2.088424276338933E+08, -2.425585094886710E+08, 2.375857553012104E+07,
2459951.500000000, A.D. 2023-Jan-07 00:00:00.0000, 2.188735235838707E+08, -2.348131546234145E+08, 2.256937671415062E+07,
2459958.500000000, A.D. 2023-Jan-14 00:00:00.0000, 2.285858317275446E+08, -2.267257124708918E+08, 2.134729590893018E+07,
2459965.500000000, A.D. 2023-Jan-21 00:00:00.0000, 2.379678883504707E+08, -2.183106179234417E+08, 2.009436328100471E+07,
2459972.500000000, A.D. 2023-Jan-28 00:00:00.0000, 2.470089937352270E+08, -2.095826446853741E+08, 1.881263012370084E+07,
2459979.500000000, A.D. 2023-Feb-04 00:00:00.0000, 2.556992161818179E+08, -2.005568597182172E+08, 1.750416308557663E+07,
2459986.500000000, A.D. 2023-Feb-11 00:00:00.0000, 2.640293925787275E+08, -1.912485778597411E+08, 1.617103871073403E+07,
2459993.500000000, A.D. 2023-Feb-18 00:00:00.0000, 2.719911256476560E+08, -1.816733176506864E+08, 1.481533824935489E+07,
2460000.500000000, A.D. 2023-Feb-25 00:00:00.0000, 2.795767783234363E+08, -1.718467587124846E+08, 1.343914271716076E+07,
2460007.500000000, A.D. 2023-Mar-04 00:00:00.0000, 2.867794655800849E+08, -1.617847008121909E+08, 1.204452820893984E+07,
2460014.500000000, A.D. 2023-Mar-11 00:00:00.0000, 2.935930439466491E+08, -1.515030247446571E+08, 1.063356147369941E+07,
2460021.500000000, A.D. 2023-Mar-18 00:00:00.0000, 3.000120989764579E+08, -1.410176551883954E+08, 9.208295750177175E+06,
2460028.500000000, A.D. 2023-Mar-25 00:00:00.0000, 3.060319310867057E+08, -1.303445256644129E+08, 7.770766844058782E+06,
2460035.500000000, A.D. 2023-Apr-01 00:00:00.0000, 3.116485404051103E+08, -1.194995452608625E+08, 6.322989441737384E+06,
2460042.500000000, A.D. 2023-Apr-08 00:00:00.0000, 3.168586102231729E+08, -1.084985659363681E+08, 4.866953817859136E+06,
2460049.500000000, A.D. 2023-Apr-15 00:00:00.0000, 3.216594869276876E+08, -9.735735153389116E+07, 3.404623058916703E+06,
2460056.500000000, A.D. 2023-Apr-22 00:00:00.0000, 3.260491584111532E+08, -8.609155156302473E+07, 1.937930382219460E+06,
2460063.500000000, A.D. 2023-Apr-29 00:00:00.0000, 3.300262338770406E+08, -7.471667748193209E+07, 4.687764764915816E+05,
2460070.500000000, A.D. 2023-May-06 00:00:00.0000, 3.335899234555475E+08, -6.324807966852807E+07, -1.000972836543154E+06,
2460077.500000000, A.D. 2023-May-13 00:00:00.0000, 3.367400168191652E+08, -5.170092593488887E+07, -2.469488611893915E+06,
2460084.500000000, A.D. 2023-May-20 00:00:00.0000, 3.394768611858962E+08, -4.009018202584215E+07, -3.934980534096261E+06,
2460091.500000000, A.D. 2023-May-27 00:00:00.0000, 3.418013390451220E+08, -2.843059407152606E+07, -5.395698444276394E+06,
2460098.500000000, A.D. 2023-Jun-03 00:00:00.0000, 3.437148457935144E+08, -1.673667290041899E+07, -6.849933656348209E+06,
2460105.500000000, A.D. 2023-Jun-10 00:00:00.0000, 3.452192674233382E+08, -5.022680152928136E+06, -8.296020077807468E+06,
2460112.500000000, A.D. 2023-Jun-17 00:00:00.0000, 3.463169584595717E+08, 6.697383822052158E+06, -9.732335160747141E+06,
2460119.500000000, A.D. 2023-Jun-24 00:00:00.0000, 3.470107205597388E+08, 1.840979042310937E+07, -1.115730072082680E+07,
2460126.500000000, A.D. 2023-Jul-01 00:00:00.0000, 3.473037821081596E+08, 3.010109251757162E+07, -1.256938359242626E+07,
2460133.500000000, A.D. 2023-Jul-08 00:00:00.0000, 3.471997772041144E+08, 4.175813434131281E+07, -1.396709591097382E+07,
2460140.500000000, A.D. 2023-Jul-15 00:00:00.0000, 3.467027228397718E+08, 5.336805883410622E+07, -1.534899514862698E+07,
2460147.500000000, A.D. 2023-Jul-22 00:00:00.0000, 3.458169978442650E+08, 6.491831145764964E+07, -1.671368432341719E+07,
$$EOE